NORAD_CAT_ID,OBJECT_NAME,OBJECT_TYPE,EPOCH,MEAN_MOTION,ECCENTRICITY,INCLINATION,RA_OF_ASC_NODE,ARG_OF_PERICENTER,MEAN_ANOMALY,BSTAR,MEAN_MOTION_DOT,MEAN_MOTION_DDOT,TLE_LINE0,TLE_LINE1,TLE_LINE2,SEMIMAJOR_AXIS,PERIOD,APOGEE,PERIGEE,DECAYED
53002.0,STARLINK-4121,PAYLOAD,2024-08-03 05:50:10,15.08849194,0.0001003,53.2151,193.3154,76.7608,283.3496,0.00061088,9.45e-05,0.0,0 STARLINK-4121,1 53002U 22076S   24216.24317279  .00009450  00000-0  61088-3 0  9991,2 53002  53.2151 193.3154 0001003  76.7608 283.3496 15.08849194115239,6917.852,95.437,540.411,539.023,0.0
53002.0,STARLINK-4121,PAYLOAD,2024-08-03 15:22:28,15.08862492,0.0001002,53.2148,191.5313,77.9645,282.146,0.0006422,9.954e-05,0.0,0 STARLINK-4121,1 53002U 22076S   24216.64060722  .00009954  00000-0  64220-3 0  9993,2 53002  53.2148 191.5313 0001002  77.9645 282.1460 15.08862492114823,6917.812,95.436,540.37,538.983,0.0
53002.0,STARLINK-4121,PAYLOAD,2024-08-04 04:05:33,15.08850599,0.0001311,53.216,189.1519,91.6154,268.4988,1.8641e-05,9e-08,0.0,0 STARLINK-4121,1 53002U 22076S   24217.17052568  .00000009  00000-0  18641-4 0  9990,2 53002  53.2160 189.1519 0001311  91.6154 268.4988 15.08850599115377,6917.848,95.437,540.62,538.806,0.0
53002.0,STARLINK-4121,PAYLOAD,2024-08-04 05:40:56,15.08855581,0.0001032,53.2149,188.8545,84.0349,276.076,0.00019181,2.767e-05,0.0,0 STARLINK-4121,1 53002U 22076S   24217.23676464  .00002767  00000-0  19181-3 0  9996,2 53002  53.2149 188.8545 0001032  84.0349 276.0760 15.08855581114919,6917.833,95.437,540.412,538.984,0.0
53002.0,STARLINK-4121,PAYLOAD,2024-08-04 21:34:47,15.08861743,0.0001428,53.2146,185.8815,93.1711,266.9445,0.00068744,0.00010676,0.0,0 STARLINK-4121,1 53002U 22076S   24217.89915530  .00010676  00000-0  68744-3 0  9995,2 53002  53.2146 185.8815 0001428  93.1711 266.9445 15.08861743115484,6917.814,95.436,540.667,538.691,0.0
53002.0,STARLINK-4121,PAYLOAD,2024-08-05 05:31:42,15.08853085,0.0001214,53.2157,184.3958,98.2278,261.8852,0.00036874,5.588e-05,0.0,0 STARLINK-4121,1 53002U 22076S   24218.23035340  .00005588  00000-0  36874-3 0  9991,2 53002  53.2157 184.3958 0001214  98.2278 261.8852 15.08853085115537,6917.84,95.437,540.545,538.866,0.0
53002.0,STARLINK-4121,PAYLOAD,2024-08-05 15:04:00,15.08867674,0.0001386,53.215,182.6105,77.2165,282.8982,0.0006153,9.525e-05,0.0,0 STARLINK-4121,1 53002U 22076S   24218.62778629  .00009525  00000-0  61530-3 0  9990,2 53002  53.2150 182.6105 0001386  77.2165 282.8982 15.08867674115599,6917.796,95.436,540.62,538.702,0.0
53002.0,STARLINK-4121,PAYLOAD,2024-08-06 03:47:06,15.08825659,0.0001151,53.2155,180.2284,86.8797,273.2327,-0.00041359,-6.861e-05,0.0,0 STARLINK-4121,1 53002U 22076S   24219.15771715 -.00006861  00000-0 -41359-3 0  9997,2 53002  53.2155 180.2284 0001151  86.8797 273.2327 15.08825659115676,6917.924,95.438,540.585,538.993,0.0
53002.0,STARLINK-4121,PAYLOAD,2024-08-06 14:54:49,15.08826922,0.0001209,53.2157,178.1471,89.3071,270.806,0.00083298,0.00012989,0.0,0 STARLINK-4121,1 53002U 22076S   24219.62140424  .00012989  00000-0  83298-3 0  9990,2 53002  53.2157 178.1471 0001209  89.3071 270.8060 15.08826922115276,6917.92,95.438,540.622,538.949,0.0
53002.0,STARLINK-4121,PAYLOAD,2024-08-07 02:02:31,15.08854234,0.00012,53.2153,176.0675,78.7019,281.4108,0.0015799,0.00024955,0.0,0 STARLINK-4121,1 53002U 22076S   24220.08508426  .00024955  00000-0  15799-2 0  9998,2 53002  53.2153 176.0675 0001200  78.7019 281.4108 15.08854234115818,6917.837,95.437,540.532,538.872,0.0
53002.0,STARLINK-4121,PAYLOAD,2024-08-08 03:28:41,15.08867651,0.000149,53.2164,171.3102,60.0177,300.0963,0.0014973,0.0002364,0.0,0 STARLINK-4121,1 53002U 22076S   24221.14491965  .00023640  00000-0  14973-2 0  9998,2 53002  53.2164 171.3102 0001490  60.0177 300.0963 15.08867651115503,6917.796,95.436,540.692,538.63,0.0
53002.0,STARLINK-4121,PAYLOAD,2024-08-08 20:57:55,15.08853535,0.0001592,53.2172,168.036,106.9783,253.1384,0.0011241,0.00017654,0.0,0 STARLINK-4121,1 53002U 22076S   24221.87355655  .00017654  00000-0  11241-2 0  9996,2 53002  53.2172 168.0360 0001592 106.9783 253.1384 15.08853535116082,6917.839,95.437,540.805,538.603,0.0
53002.0,STARLINK-4121,PAYLOAD,2024-08-09 03:19:27,15.08843544,0.0001396,53.2168,166.8496,104.1355,255.9793,0.00033775,5.092e-05,0.0,0 STARLINK-4121,1 53002U 22076S   24222.13851752  .00005092  00000-0  33775-3 0  9995,2 53002  53.2168 166.8496 0001396 104.1355 255.9793 15.08843544116128,6917.87,95.437,540.7,538.769,0.0
53002.0,STARLINK-4121,PAYLOAD,2024-08-09 12:51:45,15.08858966,0.0001291,53.2167,165.0678,98.5456,261.5682,0.00027933,4.163e-05,0.0,0 STARLINK-4121,1 53002U 22076S   24222.53594844  .00004163  00000-0  27933-3 0  9992,2 53002  53.2167 165.0678 0001291  98.5456 261.5682 15.08858966116182,6917.822,95.436,540.581,538.794,0.0
53002.0,STARLINK-4121,PAYLOAD,2024-08-09 20:48:43,15.08816752,0.0001316,53.2161,163.5765,102.5207,257.5932,-0.00021983,-3.782e-05,0.0,0 STARLINK-4121,1 53002U 22076S   24222.86716978 -.00003782  00000-0 -21983-3 0  9999,2 53002  53.2161 163.5765 0001316 102.5207 257.5932 15.08816752116230,6917.951,95.439,540.727,538.906,0.0
53002.0,STARLINK-4121,PAYLOAD,2024-08-10 01:34:52,15.08831869,0.0001756,53.2167,162.6847,123.3131,236.8029,4.9208e-06,-2.1e-06,0.0,0 STARLINK-4121,1 53002U 22076S   24223.06588398 -.00000210  00000-0  49208-5 0  9999,2 53002  53.2167 162.6847 0001756 123.3131 236.8029 15.08831869116268,6917.905,95.438,540.985,538.555,0.0
53002.0,STARLINK-4121,PAYLOAD,2024-08-10 20:39:29,15.08843483,0.0001235,53.2148,159.1161,107.0818,253.0309,0.00024625,3.634e-05,0.0,0 STARLINK-4121,1 53002U 22076S   24223.86076149  .00003634  00000-0  24625-3 0  9999,2 53002  53.2148 159.1161 0001235 107.0818 253.0309 15.08843483116380,6917.87,95.437,540.589,538.88,0.0
53002.0,STARLINK-4121,PAYLOAD,2024-08-11 12:33:20,15.08876484,0.0001033,53.2153,156.1472,81.4942,278.6167,0.0012854,0.00020249,0.0,0 STARLINK-4121,1 53002U 22076S   24224.52315094  .00020249  00000-0  12854-2 0  9999,2 53002  53.2153 156.1472 0001033  81.4942 278.6167 15.08876484116480,6917.769,95.435,540.348,538.919,0.0
53002.0,STARLINK-4121,PAYLOAD,2024-08-12 04:27:11,15.08858571,0.0001072,53.2141,153.1683,106.5502,253.5608,0.00062928,9.746e-05,0.0,0 STARLINK-4121,1 53002U 22076S   24225.18555216  .00009746  00000-0  62928-3 0  9991,2 53002  53.2141 153.1683 0001072 106.5502 253.5608 15.08858571116582,6917.824,95.436,540.43,538.947,0.0
53002.0,STARLINK-4121,PAYLOAD,2024-08-12 12:24:06,15.08897369,0.0001199,53.2153,151.6836,94.753,265.3599,0.0021436,0.00034046,0.0,0 STARLINK-4121,1 53002U 22076S   24225.51674557  .00034046  00000-0  21436-2 0  9997,2 53002  53.2153 151.6836 0001199  94.7530 265.3599 15.08897369116631,6917.705,95.434,540.399,538.741,0.0
53002.0,STARLINK-4121,PAYLOAD,2024-08-12 18:45:40,15.08896117,0.0005733,53.2146,150.4949,83.632,276.5325,0.0026513,0.00042237,0.0,0 STARLINK-4121,1 53002U 22076S   24225.78171827  .00042237  00000-0  26513-2 0  9990,2 53002  53.2146 150.4949 0005733  83.6320 276.5325 15.08896117116672,6917.709,95.434,543.54,535.608,0.0
53002.0,STARLINK-4121,PAYLOAD,2024-08-13 06:00:00,15.08813919,0.0001277,53.2141,148.3951,89.6611,295.5014,-0.0019263,-0.00030792,0.0,0 STARLINK-4121,1 53002U 22076S   24226.25001157 -.00030792  00000-0 -19263-2 0  9990,2 53002  53.2141 148.3951 0001277  89.6611 295.5014 15.08813919116747,6917.96,95.439,540.709,538.942,0.0
53002.0,STARLINK-4121,PAYLOAD,2024-08-13 12:14:57,15.0876982,0.0001373,53.2142,147.226,97.5078,262.607,0.0026672,0.00042334,0.0,0 STARLINK-4121,1 53002U 22076S   24226.51038266  .00042334  00000-0  26672-2 0  9995,2 53002  53.2142 147.2260 0001373  97.5078 262.6070 15.08769820116783,6918.095,95.442,540.91,539.01,0.0
53002.0,STARLINK-4121,PAYLOAD,2024-08-13 18:36:30,15.08806109,0.0001298,53.2139,146.0362,98.0544,262.0595,0.0033692,0.00053692,0.0,0 STARLINK-4121,1 53002U 22076S   24226.77535064  .00053692  00000-0  33692-2 0  9990,2 53002  53.2139 146.0362 0001298  98.0544 262.0595 15.08806109116822,6917.984,95.44,540.747,538.951,0.0
53002.0,STARLINK-4121,PAYLOAD,2024-08-14 12:05:44,15.08859967,0.0001255,53.2145,142.7638,102.8905,257.2228,0.0022682,0.00036015,0.0,0 STARLINK-4121,1 53002U 22076S   24227.50399281  .00036015  00000-0  22682-2 0  9998,2 53002  53.2145 142.7638 0001255 102.8905 257.2228 15.08859967116937,6917.819,95.436,540.553,538.816,0.0
53002.0,STARLINK-4121,PAYLOAD,2024-08-15 00:48:49,15.08879055,0.0001262,53.2148,140.3858,99.2541,260.8594,0.0016053,0.0002538,0.0,0 STARLINK-4121,1 53002U 22076S   24228.03390403  .00025380  00000-0  16053-2 0  9992,2 53002  53.2148 140.3858 0001262  99.2541 260.8594 15.08879055117017,6917.761,95.435,540.499,538.753,0.0
53002.0,STARLINK-4121,PAYLOAD,2024-08-15 21:28:49,15.08879278,0.0001293,53.2161,136.5187,111.045,249.0681,0.0015328,0.00024217,0.0,0 STARLINK-4121,1 53002U 22076S   24228.89501230  .00024217  00000-0  15328-2 0  9990,2 53002  53.2161 136.5187 0001293 111.0450 249.0681 15.08879278117147,6917.76,95.435,540.52,538.731,0.0
53002.0,STARLINK-4121,PAYLOAD,2024-08-16 06:00:00,15.088638,0.0001311,53.2155,134.9276,77.0153,52.4479,-0.0036021,-0.00057197,0.0,0 STARLINK-4121,1 53002U 22076S   24229.25001157 -.00057197  00000-0 -36021-2 0  9992,2 53002  53.2155 134.9276 0001311  77.0153  52.4479 15.08863800117205,6917.808,95.436,540.58,538.766,0.0
53002.0,STARLINK-4121,PAYLOAD,2024-08-16 14:00:01,15.08791872,0.0001275,53.2158,133.4296,94.4441,46.6269,0.0044752,0.00071564,0.0,0 STARLINK-4121,1 53002U 22076S   24229.58334491  .00071564  00000-0  44752-2 0  9990,2 53002  53.2158 133.4296 0001275  94.4441  46.6269 15.08791872  5809,6918.028,95.441,540.775,539.01,0.0
53002.0,STARLINK-4121,PAYLOAD,2024-08-16 22:00:01,15.08850846,0.0001355,53.2161,131.9344,90.282,62.4115,-0.00028738,-4.86e-05,0.0,0 STARLINK-4121,1 53002U 22076S   24229.91668981 -.00004860  00000-0 -28738-3 0  9995,2 53002  53.2161 131.9344 0001355  90.2820  62.4115 15.08850846117306,6917.847,95.437,540.65,538.775,0.0
